$$SOE
2460154.500000000, A.D. 2023-Jul-29 00:00:00.0000, -2.768654710023025E+08, -2.455419734049222E+08, 2.700217586888328E+07,
2460161.500000000, A.D. 2023-Aug-05 00:00:00.0000, -2.699455995560100E+08, -2.551151142765107E+08, 2.763419653280646E+07,
2460168.500000000, A.D. 2023-Aug-12 00:00:00.0000, -2.627721472542616E+08, -2.644485937661883E+08, 2.824025621260475E+07,
2460175.500000000, A.D. 2023-Aug-19 00:00:00.0000, -2.553546628057882E+08, -2.735364693232501E+08, 2.882008724001049E+07,
2460182.500000000, A.D. 2023-Aug-26 00:00:00.0000, -2.477027572233102E+08, -2.823732148818792E+08, 2.937345802372508E+07,
2460189.500000000, A.D. 2023-Sep-02 00:00:00.0000, -2.398260846088108E+08, -2.909537132224694E+08, 2.990017195996693E+07,
2460196.500000000, A.D. 2023-Sep-09 00:00:00.0000, -2.317343239899839E+08, -2.992732476745273E+08, 3.040006629288229E+07,
2460203.500000000, A.D. 2023-Sep-16 00:00:00.0000, -2.234371620461468E+08, -3.073274933191804E+08, 3.087301091324092E+07,
2460210.500000000, A.D. 2023-Sep-23 00:00:00.0000, -2.149442763058825E+08, -3.151125075001717E+08, 3.131890708868191E+07,
2460217.500000000, A.D. 2023-Sep-30 00:00:00.0000, -2.062653191474304E+08, -3.226247185430350E+08, 3.173768626138097E+07,
2460224.500000000, A.D. 2023-Oct-07 00:00:00.0000, -1.974099049398692E+08, -3.298609133100597E+08, 3.212930909131655E+07,
2460231.500000000, A.D. 2023-Oct-14 00:00:00.0000, -1.883875992638507E+08, -3.368182269852639E+08, 3.249376438511345E+07,
2460238.500000000, A.D. 2023-Oct-21 00:00:00.0000, -1.792079069590862E+08, -3.434941335641434E+08, 3.283106775139581E+07,
2460245.500000000, A.D. 2023-Oct-28 00:00:00.0000, -1.698802603955925E+08, -3.498864348586376E+08, 3.314126030374934E+07,
2460252.500000000, A.D. 2023-Nov-04 00:00:00.0000, -1.604140091872077E+08, -3.559932488508955E+08, 3.342440746794011E+07,
2460259.500000000, A.D. 2023-Nov-11 00:00:00.0000, -1.508184111347364E+08, -3.618129980529104E+08, 3.368059783221586E+07,
2460266.500000000, A.D. 2023-Nov-18 00:00:00.0000, -1.411026241413255E+08, -3.673443979886926E+08, 3.390994201875658E+07,
2460273.500000000, A.D. 2023-Nov-25 00:00:00.0000, -1.312756989877333E+08, -3.725864458249210E+08, 3.411257157453747E+07,
2460280.500000000, A.D. 2023-Dec-02 00:00:00.0000, -1.213465728995321E+08, -3.775384092056814E+08, 3.428863788104671E+07,
2460287.500000000, A.D. 2023-Dec-09 00:00:00.0000, -1.113240637886602E+08, -3.821998153895855E+08, 3.443831107351407E+07,
2460294.500000000, A.D. 2023-Dec-16 00:00:00.0000, -1.012168648417223E+08, -3.865704407109673E+08, 3.456177894637020E+07,
2460301.500000000, A.D. 2023-Dec-23 00:00:00.0000, -9.103353906635709E+07, -3.906502997073433E+08, 3.465924587067866E+07,
2460308.500000000, A.D. 2023-Dec-30 00:00:00.0000, -8.078251509575261E+07, -3.944396328888642E+08, 3.473093193319131E+07,
2460315.500000000, A.D. 2024-Jan-06 00:00:00.0000, -7.047208598329815E+07, -3.979388955311062E+08, 3.477707226705399E+07,
2460322.500000000, A.D. 2024-Jan-13 00:00:00.0000, -6.011040777439827E+07, -4.011487493170688E+08, 3.479791613572912E+07,
2460329.500000000, A.D. 2024-Jan-20 00:00:00.0000, -4.970549659376868E+07, -4.040700537615271E+08, 3.479372591048698E+07,
2460336.500000000, A.D. 2024-Jan-27 00:00:00.0000, -3.926522624091206E+07, -4.067038567796572E+08, 3.476477618122774E+07,
2460343.500000000, A.D. 2024-Feb-03 00:00:00.0000, -2.879732668760254E+07, -4.090513853589478E+08, 3.471135296245223E+07,
2460350.500000000, A.D. 2024-Feb-10 00:00:00.0000, -1.830938316722785E+07, -4.111140366326638E+08, 3.463375294488271E+07,
2460357.500000000, A.D. 2024-Feb-17 00:00:00.0000, -7.808835686102701E+06, -4.128933693505595E+08, 3.453228277995023E+07,
2460364.500000000, A.D. 2024-Feb-24 00:00:00.0000, 2.697021109618163E+06, -4.143910957323889E+08, 3.440725839387365E+07,
2460371.500000000, A.D. 2024-Mar-02 00:00:00.0000, 1.320103777116684E+07, -4.156090737351267E+08, 3.425900432457878E+07,
2460378.500000000, A.D. 2024-Mar-09 00:00:00.0000, 2.369620975757692E+07, -4.165492997949378E+08, 3.408785306234355E+07,
2460385.500000000, A.D. 2024-Mar-16 00:00:00.0000, 3.417567744376429E+07, -4.172139018458108E+08, 3.389414437321804E+07,
2460392.500000000, A.D. 2024-Mar-23 00:00:00.0000, 4.463272634933376E+07, -4.176051315057980E+08, 3.367822470496464E+07,
2460399.500000000, A.D. 2024-Mar-30 00:00:00.0000, 5.506078537032393E+07, -4.177253554563056E+08, 3.344044687852482E+07,
2460406.500000000, A.D. 2024-Apr-06 00:00:00.0000, 6.545342329128027E+07, -4.175770493779062E+08, 3.318116976556201E+07,
2460413.500000000, A.D. 2024-Apr-13 00:00:00.0000, 7.580434714930250E+07, -4.171627936013032E+08, 3.290075769388501E+07,
2460420.500000000, A.D. 2024-Apr-20 00:00:00.0000, 8.610740151691271E+07, -4.164852677915195E+08, 3.259957988608858E+07,
2460427.500000000, A.D. 2024-Apr-27 00:00:00.0000, 9.635656720433106E+07, -4.155472452198576E+08, 3.227801002376194E+07,
2460434.500000000, A.D. 2024-May-04 00:00:00.0000, 1.065459594857898E+08, -4.143515873190802E+08, 3.193642587068637E+07,
2460441.500000000, A.D. 2024-May-11 00:00:00.0000, 1.166698261039219E+08, -4.129012386152401E+08, 3.157520892381755E+07,
2460448.500000000, A.D. 2024-May-18 00:00:00.0000, 1.267225451487598E+08, -4.111992220057359E+08, 3.119474408526973E+07,
2460455.500000000, A.D. 2024-May-25 00:00:00.0000, 1.366986228497886E+08, -4.092486343815149E+08, 3.079541935141237E+07,
2460462.500000000, A.D. 2024-Jun-01 00:00:00.0000, 1.465926913541722E+08, -4.070526426418625E+08, 3.037762550799970E+07,
2460469.500000000, A.D. 2024-Jun-08 00:00:00.0000, 1.563995067500501E+08, -4.046144801167105E+08, 2.994175580627601E+07,
2460476.500000000, A.D. 2024-Jun-15 00:00:00.0000, 1.661139477455298E+08, -4.019374428442360E+08, 2.948820562759733E+07,
2460483.500000000, A.D. 2024-Jun-22 00:00:00.0000, 1.757310140074267E+08, -3.990248845213946E+08, 2.901737232437772E+07,
2460490.500000000, A.D. 2024-Jun-29 00:00:00.0000, 1.852458220458107E+08, -3.958802119394846E+08, 2.852965528236100E+07,
2460497.500000000, A.D. 2024-Jul-06 00:00:00.0000, 1.946536012968782E+08, -3.925068833659620E+08, 2.802545575860924E+07,
2460504.500000000, A.D. 2024-Jul-13 00:00:00.0000, 2.039496923612479E+08, -3.889084070397913E+08, 2.750517654638822E+07,
2460511.500000000, A.D. 2024-Jul-20 00:00:00.0000, 2.131295454189252E+08, -3.850883386240360E+08, 2.696922174228410E+07,
2460518.500000000, A.D. 2024-Jul-27 00:00:00.0000, 2.221887181709034E+08, -3.810502785670788E+08, 2.641799659650251E+07,
2460525.500000000, A.D. 2024-Aug-03 00:00:00.0000, 2.311228735860617E+08, -3.767978697390913E+08, 2.585190738978982E+07,
2460532.500000000, A.D. 2024-Aug-10 00:00:00.0000, 2.399277776247559E+08, -3.723347953401808E+08, 2.527136132054120E+07,
2460539.500000000, A.D. 2024-Aug-17 00:00:00.0000, 2.485992969916785E+08, -3.676647770509578E+08, 2.467676639868447E+07,
2460546.500000000, A.D. 2024-Aug-24 00:00:00.0000, 2.571333969505353E+08, -3.627915734404881E+08, 2.406853134106180E+07,
2460553.500000000, A.D. 2024-Aug-31 00:00:00.0000, 2.655261393206605E+08, -3.577189786860288E+08, 2.344706545177901E+07,
2460560.500000000, A.D. 2024-Sep-07 00:00:00.0000, 2.737736810257169E+08, -3.524508214719118E+08, 2.281277846360764E+07,
2460567.500000000, A.D. 2024-Sep-14 00:00:00.0000, 2.818722732840028E+08, -3.469909630668625E+08, 2.216608041353364E+07,
2460574.500000000, A.D. 2024-Sep-21 00:00:00.0000, 2.898182594143286E+08, -3.413432941628444E+08, 2.150738177171981E+07,
2460581.500000000, A.D. 2024-Sep-28 00:00:00.0000, 2.976080707712125E+08, -3.355117336971816E+08, 2.083709360392879E+07,
2460588.500000000, A.D. 2024-Oct-05 00:00:00.0000, 3.052382244808774E+08, -3.295002296492921E+08, 2.015562743001752E+07,
2460595.500000000, A.D. 2024-Oct-12 00:00:00.0000, 3.127053226203382E+08, -3.233127588264276E+08, 1.946339505458455E+07,
2460602.500000000, A.D. 2024-Oct-19 00:00:00.0000, 3.200060510909979E+08, -3.169533259049530E+08, 1.876080850787966E+07,
2460609.500000000, A.D. 2024-Oct-26 00:00:00.0000, 3.271371781555860E+08, -3.104259625241774E+08, 1.804828003402306E+07,
2460616.500000000, A.D. 2024-Nov-02 00:00:00.0000, 3.340955528960957E+08, -3.037347265762063E+08, 1.732622209026282E+07,
2460623.500000000, A.D. 2024-Nov-09 00:00:00.0000, 3.408781036891793E+08, -2.968837016654360E+08, 1.659504734945932E+07,
2460630.500000000, A.D. 2024-Nov-16 00:00:00.0000, 3.474818367250222E+08, -2.898769967310449E+08, 1.585516870276836E+07,
2460637.500000000, A.D. 2024-Nov-23 00:00:00.0000, 3.539038346176744E+08, -2.827187458758399E+08, 1.510699925355338E+07,
2460644.500000000, A.D. 2024-Nov-30 00:00:00.0000, 3.601412553174869E+08, -2.754131084381660E+08, 1.435095227958237E+07,
2460651.500000000, A.D. 2024-Dec-07 00:00:00.0000, 3.661913317487772E+08, -2.679642688819183E+08, 1.358744115945236E+07,
2460658.500000000, A.D. 2024-Dec-14 00:00:00.0000, 3.720513714881185E+08, -2.603764352789035E+08, 1.281687942679085E+07,
2460665.500000000, A.D. 2024-Dec-21 00:00:00.0000, 3.777187541665245E+08, -2.526538376237839E+08, 1.203968106367776E+07,
2460672.500000000, A.D. 2024-Dec-28 00:00:00.0000, 3.831909285670320E+08, -2.448007289463407E+08, 1.125626060955231E+07,
2460679.500000000, A.D. 2025-Jan-04 00:00:00.0000, 3.884654120143422E+08, -2.368213868404347E+08, 1.046703304122171E+07,
2460686.500000000, A.D. 2025-Jan-11 00:00:00.0000, 3.935397902362304E+08, -2.287201137460570E+08, 9.672413726583987E+06,
2460693.500000000, A.D. 2025-Jan-18 00:00:00.0000, 3.984117167809174E+08, -2.205012369001587E+08, 8.872818461072385E+06,
2460700.500000000, A.D. 2025-Jan-25 00:00:00.0000, 4.030789122348228E+08, -2.121691084277195E+08, 8.068663525683567E+06,
2460707.500000000, A.D. 2025-Feb-01 00:00:00.0000, 4.075391634311929E+08, -2.037281056001421E+08, 7.260365746734127E+06,
2460714.500000000, A.D. 2025-Feb-08 00:00:00.0000, 4.117903227091070E+08, -1.951826312384607E+08, 6.448342553585388E+06,
2460721.500000000, A.D. 2025-Feb-15 00:00:00.0000, 4.158303072527021E+08, -1.865371142788162E+08, 5.633012030011043E+06,
$$EOE